[{"OBJECT_NAME":"STARLINK-5142","OBJECT_ID":"2022-125W","EPOCH":"2026-03-09T17:04:32.741184","MEAN_MOTION":15.08845408,"ECCENTRICITY":0.00015201,"INCLINATION":53.2158,"RA_OF_ASC_NODE":214.1772,"ARG_OF_PERICENTER":82.419,"MEAN_ANOMALY":277.6975,"EPHEMERIS_TYPE":0,"CLASSIFICATION_TYPE":"U","NORAD_CAT_ID":53984,"ELEMENT_SET_NO":999,"REV_AT_EPOCH":18946,"BSTAR":-1.8389631e-5,"MEAN_MOTION_DOT":-5.81e-6,"MEAN_MOTION_DDOT":0},{"OBJECT_NAME":"OBJECT E","OBJECT_ID":"2025-292E","EPOCH":"2026-03-09T23:06:13.350528","MEAN_MOTION":15.05603019,"ECCENTRICITY":0.00142209,"INCLINATION":97.6388,"RA_OF_ASC_NODE":145.6972,"ARG_OF_PERICENTER":344.4497,"MEAN_ANOMALY":15.6291,"EPHEMERIS_TYPE":0,"CLASSIFICATION_TYPE":"U","NORAD_CAT_ID":66997,"ELEMENT_SET_NO":999,"REV_AT_EPOCH":1350,"BSTAR":0.00040225725,"MEAN_MOTION_DOT":5.752e-5,"MEAN_MOTION_DDOT":0}]
